{
    "links": {
        "self": "http://www.neowsapp.com/rest/v1/neo/54051376?api_key=iIulBulltgU6a56xZRHN4H3l9WmuAYTsLGpBGhQ2"
    },
    "id": "54051376",
    "neo_reference_id": "54051376",
    "name": "(2020 QB5)",
    "designation": "2020 QB5",
    "nasa_jpl_url": "http://ssd.jpl.nasa.gov/sbdb.cgi?sstr=54051376",
    "absolute_magnitude_h": 25.083,
    "estimated_diameter": {
        "kilometers": {
            "estimated_diameter_min": 0.0255832065,
            "estimated_diameter_max": 0.0572057889
        },
        "meters": {
            "estimated_diameter_min": 25.5832065156,
            "estimated_diameter_max": 57.2057888513
        },
        "miles": {
            "estimated_diameter_min": 0.0158966626,
            "estimated_diameter_max": 0.0355460182
        },
        "feet": {
            "estimated_diameter_min": 83.9344072646,
            "estimated_diameter_max": 187.6830402948
        }
    },
    "is_potentially_hazardous_asteroid": false,
    "close_approach_data": [
        {
            "close_approach_date": "2020-08-22",
            "close_approach_date_full": "2020-Aug-22 01:02",
            "epoch_date_close_approach": 1598058120000,
            "relative_velocity": {
                "kilometers_per_second": "9.7279448521",
                "kilometers_per_hour": "35020.6014675668",
                "miles_per_hour": "21760.4398396667"
            },
            "miss_distance": {
                "astronomical": "0.067993644",
                "lunar": "26.449527516",
                "kilometers": "10171704.31593828",
                "miles": "6320403.980897064"
            },
            "orbiting_body": "Earth"
        },
        {
            "close_approach_date": "2136-11-12",
            "close_approach_date_full": "2136-Nov-12 14:25",
            "epoch_date_close_approach": 5265786300000,
            "relative_velocity": {
                "kilometers_per_second": "19.5860523553",
                "kilometers_per_hour": "70509.7884790735",
                "miles_per_hour": "43812.0405135665"
            },
            "miss_distance": {
                "astronomical": "0.3330503774",
                "lunar": "129.5565968086",
                "kilometers": "49823627.061736138",
                "miles": "30958966.2698211844"
            },
            "orbiting_body": "Earth"
        }
    ],
    "orbital_data": {
        "orbit_id": "2",
        "orbit_determination_date": "2020-08-25 07:06:48",
        "first_observation_date": "2020-08-12",
        "last_observation_date": "2020-08-24",
        "data_arc_in_days": 12,
        "observations_used": 19,
        "orbit_uncertainty": "8",
        "minimum_orbit_intersection": ".0645538",
        "jupiter_tisserand_invariant": "3.034",
        "epoch_osculation": "2459077.5",
        "eccentricity": ".6220918199787442",
        "semi_major_axis": "2.724256623963122",
        "inclination": "7.232088863953315",
        "ascending_node_longitude": "311.6172779896246",
        "orbital_period": "1642.367907597154",
        "perihelion_distance": "1.029518862672754",
        "perihelion_argument": "41.64217012674951",
        "aphelion_distance": "4.418994385253489",
        "perihelion_time": "2459103.050992064451",
        "mean_anomaly": "354.3993321468026",
        "mean_motion": ".2191957102514828",
        "equinox": "J2000",
        "orbit_class": {
            "orbit_class_type": "AMO",
            "orbit_class_description": "Near-Earth asteroid orbits similar to that of 1221 Amor",
            "orbit_class_range": "1.017 AU < q (perihelion) < 1.3 AU"
        }
    },
    "is_sentry_object": false
}